start=new Date('2022-06-16T00:00:00.000Z').valueOf();
sats=[{"TLE_LINE2":"2 50169  53.2188 248.6104 0002327  33.1250 326.9888 15.08825369 30816","TIME_SYSTEM":"UTC","SEMIMAJOR_AXIS":"6917.925","EPHEMERIS_TYPE":"0","ELEMENT_SET_NO":"999","GP_ID":"206209466","SITE":"AFWTR","NORAD_CAT_ID":"50169","APOAPSIS":"541.400","MEAN_MOTION_DOT":"-0.00002079","MEAN_MOTION":"15.08825369","COUNTRY_CODE":"US","MEAN_ANOMALY":"326.9888","MEAN_MOTION_DDOT":"0.0000000000000","RCS_SIZE":"LARGE","TLE_LINE1":"1 50169U 21125P   22166.52620651 -.00002079  00000-0 -11260-3 0  9999","PERIAPSIS":"538.180","OBJECT_ID":"2021-125P","FILE":"3496794","EPOCH":"2022-06-15T12:37:44.242464","REV_AT_EPOCH":"3081","OBJECT_TYPE":"PAYLOAD","ECCENTRICITY":"0.00023270","PERIOD":"95.438","DECAY_DATE":null,"LAUNCH_DATE":"2021-12-18","BSTAR":"-0.00011260000000","INCLINATION":"53.2188","MEAN_ELEMENT_THEORY":"SGP4","RA_OF_ASC_NODE":"248.6104","CLASSIFICATION_TYPE":"U","ARG_OF_PERICENTER":"33.1250","REF_FRAME":"TEME","CENTER_NAME":"EARTH","OBJECT_NAME":"STARLINK-3301"},{"PERIOD":"95.438","OBJECT_ID":"2021-125Q","FILE":"3496999","EPOCH":"2022-06-15T17:55:40.229760","REV_AT_EPOCH":"3083","OBJECT_TYPE":"PAYLOAD","ECCENTRICITY":"0.00018860","PERIAPSIS":"538.440","ARG_OF_PERICENTER":"52.0321","REF_FRAME":"TEME","CENTER_NAME":"EARTH","OBJECT_NAME":"STARLINK-3245","RA_OF_ASC_NODE":"247.6011","CLASSIFICATION_TYPE":"U","INCLINATION":"53.2169","MEAN_ELEMENT_THEORY":"SGP4","DECAY_DATE":null,"LAUNCH_DATE":"2021-12-18","BSTAR":"0.00004015700000","NORAD_CAT_ID":"50170","SITE":"AFWTR","ELEMENT_SET_NO":"999","GP_ID":"206239912","SEMIMAJOR_AXIS":"6917.880","EPHEMERIS_TYPE":"0","TLE_LINE2":"2 50170  53.2169 247.6011 0001886  52.0321 308.0842 15.08840085 30836","TIME_SYSTEM":"UTC","RCS_SIZE":"LARGE","TLE_LINE1":"1 50170U 21125Q   22166.74699340  .00000351  00000-0  40157-4 0  9993","MEAN_MOTION_DOT":"0.00000351","APOAPSIS":"541.050","MEAN_MOTION":"15.08840085","MEAN_ANOMALY":"308.0842","COUNTRY_CODE":"US","MEAN_MOTION_DDOT":"0.0000000000000"},{"EPHEMERIS_TYPE":"0","SEMIMAJOR_AXIS":"6917.883","TIME_SYSTEM":"UTC","TLE_LINE2":"2 50171  53.2158 247.8336 0001976  48.8106 311.3057 15.08839247 30834","SITE":"AFWTR","NORAD_CAT_ID":"50171","GP_ID":"206238660","ELEMENT_SET_NO":"999","TLE_LINE1":"1 50171U 21125R   22166.69548377 -.00001106  00000-0 -51387-4 0  9999","RCS_SIZE":"LARGE","MEAN_MOTION_DDOT":"0.0000000000000","COUNTRY_CODE":"US","MEAN_ANOMALY":"311.3057","MEAN_MOTION":"15.08839247","APOAPSIS":"541.115","MEAN_MOTION_DOT":"-0.00001106","PERIAPSIS":"538.381","PERIOD":"95.438","ECCENTRICITY":"0.00019760","OBJECT_TYPE":"PAYLOAD","REV_AT_EPOCH":"3083","EPOCH":"2022-06-15T16:41:29.797728","FILE":"3496999","OBJECT_ID":"2021-125R","MEAN_ELEMENT_THEORY":"SGP4","INCLINATION":"53.2158","BSTAR":"-0.00005138700000","LAUNCH_DATE":"2021-12-18","DECAY_DATE":null,"OBJECT_NAME":"STARLINK-3286","CENTER_NAME":"EARTH","REF_FRAME":"TEME","ARG_OF_PERICENTER":"48.8106","CLASSIFICATION_TYPE":"U","RA_OF_ASC_NODE":"247.8336"},{"REF_FRAME":"TEME","ARG_OF_PERICENTER":"38.0123","OBJECT_NAME":"STARLINK-3287","CENTER_NAME":"EARTH","RA_OF_ASC_NODE":"248.8417","CLASSIFICATION_TYPE":"U","INCLINATION":"53.2186","MEAN_ELEMENT_THEORY":"SGP4","DECAY_DATE":null,"LAUNCH_DATE":"2021-12-18","BSTAR":"-0.00008474700000","PERIOD":"95.438","REV_AT_EPOCH":"3083","EPOCH":"2022-06-15T11:23:32.904960","OBJECT_ID":"2021-125S","FILE":"3496794","OBJECT_TYPE":"PAYLOAD","ECCENTRICITY":"0.00022710","PERIAPSIS":"538.211","RCS_SIZE":"LARGE","TLE_LINE1":"1 50172U 21125S   22166.47468640 -.00001636  00000-0 -84747-4 0  9994","MEAN_MOTION":"15.08828026","APOAPSIS":"541.353","MEAN_MOTION_DOT":"-0.00001636","MEAN_MOTION_DDOT":"0.0000000000000","COUNTRY_CODE":"US","MEAN_ANOMALY":"322.1030","SITE":"AFWTR","NORAD_CAT_ID":"50172","ELEMENT_SET_NO":"999","GP_ID":"206209222","SEMIMAJOR_AXIS":"6917.917","EPHEMERIS_TYPE":"0","TIME_SYSTEM":"UTC","TLE_LINE2":"2 50172  53.2186 248.8417 0002271  38.0123 322.1030 15.08828026 30830"},{"MEAN_MOTION":"15.08837648","APOAPSIS":"545.449","MEAN_MOTION_DOT":"-0.00001829","MEAN_MOTION_DDOT":"0.0000000000000","COUNTRY_CODE":"US","MEAN_ANOMALY":"10.0146","RCS_SIZE":"LARGE","TLE_LINE1":"1 50173U 21125T   22166.50232838 -.00001829  00000-0 -96584-4 0  9993","TLE_LINE2":"2 50173  53.2243 238.6622 0008234 350.0682  10.0146 15.08837648 30956","TIME_SYSTEM":"UTC","SEMIMAJOR_AXIS":"6917.888","EPHEMERIS_TYPE":"0","ELEMENT_SET_NO":"999","GP_ID":"206209967","SITE":"AFWTR","NORAD_CAT_ID":"50173","DECAY_DATE":null,"LAUNCH_DATE":"2021-12-18","BSTAR":"-0.00009658400000","INCLINATION":"53.2243","MEAN_ELEMENT_THEORY":"SGP4","RA_OF_ASC_NODE":"238.6622","CLASSIFICATION_TYPE":"U","REF_FRAME":"TEME","ARG_OF_PERICENTER":"350.0682","OBJECT_NAME":"STARLINK-3289","CENTER_NAME":"EARTH","PERIAPSIS":"534.056","EPOCH":"2022-06-15T12:03:21.172032","REV_AT_EPOCH":"3095","FILE":"3496794","OBJECT_ID":"2021-125T","ECCENTRICITY":"0.00082340","OBJECT_TYPE":"PAYLOAD","PERIOD":"95.438"},{"NORAD_CAT_ID":"50174","SITE":"AFWTR","GP_ID":"206209714","ELEMENT_SET_NO":"999","EPHEMERIS_TYPE":"0","SEMIMAJOR_AXIS":"6917.879","TIME_SYSTEM":"UTC","TLE_LINE2":"2 50174  53.2188 248.5933 0002134  35.1359 324.9774 15.08840392 30858","TLE_LINE1":"1 50174U 21125U   22166.52987659 -.00000903  00000-0 -38640-4 0  9995","RCS_SIZE":"LARGE","COUNTRY_CODE":"US","MEAN_ANOMALY":"324.9774","MEAN_MOTION_DDOT":"0.0000000000000","MEAN_MOTION_DOT":"-0.00000903","APOAPSIS":"541.220","MEAN_MOTION":"15.08840392","PERIOD":"95.438","OBJECT_TYPE":"PAYLOAD","ECCENTRICITY":"0.00021340","OBJECT_ID":"2021-125U","FILE":"3496794","EPOCH":"2022-06-15T12:43:01.337376","REV_AT_EPOCH":"3085","PERIAPSIS":"538.268","CENTER_NAME":"EARTH","OBJECT_NAME":"STARLINK-3292","ARG_OF_PERICENTER":"35.1359","REF_FRAME":"TEME","CLASSIFICATION_TYPE":"U","RA_OF_ASC_NODE":"248.5933","MEAN_ELEMENT_THEORY":"SGP4","INCLINATION":"53.2188","LAUNCH_DATE":"2021-12-18","BSTAR":"-0.00003864000000","DECAY_DATE":null},{"PERIAPSIS":"538.543","REV_AT_EPOCH":"3080","EPOCH":"2022-06-15T11:39:26.833536","FILE":"3496794","OBJECT_ID":"2021-125V","ECCENTRICITY":"0.00017230","OBJECT_TYPE":"PAYLOAD","PERIOD":"95.437","DECAY_DATE":null,"BSTAR":"0.00007314600000","LAUNCH_DATE":"2021-12-18","INCLINATION":"53.2179","MEAN_ELEMENT_THEORY":"SGP4","RA_OF_ASC_NODE":"248.7797","CLASSIFICATION_TYPE":"U","REF_FRAME":"TEME","ARG_OF_PERICENTER":"51.4079","OBJECT_NAME":"STARLINK-3291","CENTER_NAME":"EARTH","TLE_LINE2":"2 50175  53.2179 248.7797 0001723  51.4079 308.7067 15.08843374 30805","TIME_SYSTEM":"UTC","SEMIMAJOR_AXIS":"6917.870","EPHEMERIS_TYPE":"0","ELEMENT_SET_NO":"999","GP_ID":"206208975","SITE":"AFWTR","NORAD_CAT_ID":"50175","MEAN_MOTION":"15.08843374","MEAN_MOTION_DOT":"0.00000876","APOAPSIS":"540.927","MEAN_MOTION_DDOT":"0.0000000000000","COUNTRY_CODE":"US","MEAN_ANOMALY":"308.7067","RCS_SIZE":"LARGE","TLE_LINE1":"1 50175U 21125V   22166.48572724  .00000876  00000-0  73146-4 0  9991"},{"RA_OF_ASC_NODE":"248.5764","CLASSIFICATION_TYPE":"U","ARG_OF_PERICENTER":"34.4496","REF_FRAME":"TEME","CENTER_NAME":"EARTH","OBJECT_NAME":"STARLINK-3293","DECAY_DATE":null,"BSTAR":"-0.00003830500000","LAUNCH_DATE":"2021-12-18","INCLINATION":"53.2188","MEAN_ELEMENT_THEORY":"SGP4","FILE":"3496794","OBJECT_ID":"2021-125W","REV_AT_EPOCH":"3085","EPOCH":"2022-06-15T12:48:19.444896","ECCENTRICITY":"0.00023270","OBJECT_TYPE":"PAYLOAD","PERIOD":"95.438","PERIAPSIS":"538.143","MEAN_MOTION_DOT":"-0.00000898","APOAPSIS":"541.362","MEAN_MOTION":"15.08837647","COUNTRY_CODE":"US","MEAN_ANOMALY":"325.6647","MEAN_MOTION_DDOT":"0.0000000000000","RCS_SIZE":"LARGE","TLE_LINE1":"1 50176U 21125W   22166.53355839 -.00000898  00000-0 -38305-4 0  9998","ELEMENT_SET_NO":"999","GP_ID":"206208722","NORAD_CAT_ID":"50176","SITE":"AFWTR","TLE_LINE2":"2 50176  53.2188 248.5764 0002327  34.4496 325.6647 15.08837647 30856","TIME_SYSTEM":"UTC","SEMIMAJOR_AXIS":"6917.888","EPHEMERIS_TYPE":"0"},{"PERIAPSIS":"538.214","OBJECT_ID":"2021-125X","FILE":"3496794","EPOCH":"2022-06-15T11:28:51.102336","REV_AT_EPOCH":"3080","ECCENTRICITY":"0.00022830","OBJECT_TYPE":"PAYLOAD","PERIOD":"95.439","DECAY_DATE":null,"LAUNCH_DATE":"2021-12-18","BSTAR":"-0.00006135600000","INCLINATION":"53.2184","MEAN_ELEMENT_THEORY":"SGP4","RA_OF_ASC_NODE":"248.8225","CLASSIFICATION_TYPE":"U","ARG_OF_PERICENTER":"36.3822","REF_FRAME":"TEME","CENTER_NAME":"EARTH","OBJECT_NAME":"STARLINK-3282","TLE_LINE2":"2 50177  53.2184 248.8225 0002283  36.3822 323.7326 15.08824344 30801","TIME_SYSTEM":"UTC","SEMIMAJOR_AXIS":"6917.928","EPHEMERIS_TYPE":"0","ELEMENT_SET_NO":"999","GP_ID":"206209467","SITE":"AFWTR","NORAD_CAT_ID":"50177","MEAN_MOTION_DOT":"-0.00001264","APOAPSIS":"541.373","MEAN_MOTION":"15.08824344","MEAN_ANOMALY":"323.7326","COUNTRY_CODE":"US","MEAN_MOTION_DDOT":"0.0000000000000","RCS_SIZE":"LARGE","TLE_LINE1":"1 50177U 21125X   22166.47836924 -.00001264  00000-0 -61356-4 0  9991"},{"EPHEMERIS_TYPE":"0","SEMIMAJOR_AXIS":"6917.927","TLE_LINE2":"2 50178  53.2161 248.6949 0002048  36.9380 323.1752 15.08824646 30848","TIME_SYSTEM":"UTC","NORAD_CAT_ID":"50178","SITE":"AFWTR","GP_ID":"206210215","ELEMENT_SET_NO":"999","TLE_LINE1":"1 50178U 21125Y   22166.50412835 -.00002669  00000-0 -14971-3 0  9997","RCS_SIZE":"LARGE","MEAN_MOTION_DDOT":"0.0000000000000","MEAN_ANOMALY":"323.1752","COUNTRY_CODE":"US","MEAN_MOTION":"15.08824646","APOAPSIS":"541.209","MEAN_MOTION_DOT":"-0.00002669","PERIAPSIS":"538.376","PERIOD":"95.439","ECCENTRICITY":"0.00020480","OBJECT_TYPE":"PAYLOAD","REV_AT_EPOCH":"3084","EPOCH":"2022-06-15T12:05:56.689440","FILE":"3496794","OBJECT_ID":"2021-125Y","MEAN_ELEMENT_THEORY":"SGP4","INCLINATION":"53.2161","BSTAR":"-0.00014971000000","LAUNCH_DATE":"2021-12-18","DECAY_DATE":null,"OBJECT_NAME":"STARLINK-3284","CENTER_NAME":"EARTH","REF_FRAME":"TEME","ARG_OF_PERICENTER":"36.9380","CLASSIFICATION_TYPE":"U","RA_OF_ASC_NODE":"248.6949"}];
